#cP2022  4  5 12  0  0.00000000     576 d+D   IGb14 EXT AIUB
## 2204 216000.00000000   300.00000000 59674 0.5000000000000
+   77   G01G02G03G04G05G06G07G08G09G10G11G12G13G14G15G16G17
+        G18G19G20G21G22G23G24G25G26G27G28G29G30G31G32R01R02
+        R03R04R05R07R08R09R12R13R14R15R17R18R19R20R21R22R24
+        E01E02E03E04E05E07E08E09E10E11E12E13E14E15E18E19E21
+        E24E25E26E27E30E31E33E34E36  0  0  0  0  0  0  0  0
++        10  7  5  7  7  6  7  6  6  6  9  7  7  8  8  7  7
++         9  7  7  6  7  7  6  6  6  5  7  7  6  7  6  8  7
++         6  7  7  7  7  6  7  8  7  8  7  7  9  9  8  8  8
++         8  6  6  6  6  5  6  6  6  7  7  7  6  6  6  7  6
++         6  6  7  7  6  6  7  7  6  0  0  0  0  0  0  0  0
%c M  cc GPS ccc cccc cccc cccc cccc ccccc ccccc ccccc ccccc
%c cc cc ccc ccc cccc cccc cccc cccc ccccc ccccc ccccc ccccc
%f  1.2500000  1.025000000  0.00000000000  0.000000000000000
%f  0.0000000  0.000000000  0.00000000000  0.000000000000000
%i    0    0    0    0      0      0      0      0         0
%i    0    0    0    0      0      0      0      0         0
/* Center for Orbit Determination in Europe (CODE)          
/* Ultra-rapid GRE orbits starting year-day 22095 12 hour   
/* Observed/predicted: 24/24 hours (data used up to 096L)   
/* PCV:IGS14      OL/AL:FES2014b NONE     YN ORB:CoN CLK:BRD
*  2022  4  7  8 15  0.00000000
PG01 -15092.625056   -379.879532  21606.116664    390.701818               P   P
PG02  14777.274349  20047.520873  -8360.507201   -652.961935               P   P
PG03 -20665.948984   9453.771409  13547.619628   -196.579892               P   P
PG04 -25177.447085    142.258091  -8580.597810   -177.885388               P   P
PG05  14897.638954   5507.741631 -21470.128995    -77.425726               P   P
PG06   4937.156797  25574.075912   5042.181896    257.998772               P   P
PG07  -8388.011302  16545.642632 -18426.145642    319.369870               P   P
PG08 -26084.338711  -5779.672650  -1479.830966    -62.915668               P   P
PG09 -18482.228768   8847.794852 -16979.754674   -345.271699               P   P
PG10   8885.335993 -22090.342374  11604.254053   -371.179063               P   P
PG11  12933.199218  20976.594079  -9933.296162    -48.450625               P   P
PG12  20510.215687  -4953.479862  15784.927751   -196.615719               P   P
PG13  21587.680019  13428.777038  -8130.241008    289.884615               P   P
PG14 -10602.763429  21912.766095  10520.799561   -100.623234               P   P
PG15  26553.538963   2962.189631  -1333.991687    -70.841638               P   P
PG16 -11020.695675 -10428.129241 -22079.760669   -489.118938               P   P
PG17  -2074.292496  14944.875473  22288.385262    597.194910               P   P
PG18   8478.164856 -16431.477799 -19031.803088    201.541818               P   P
PG19   6228.111330  16094.714082  19985.369116    141.159214               P   P
PG20   8360.343833  14670.095497 -20547.400215    515.937769               P   P
PG21 -17868.018948 -10971.373074  17337.912463    160.211882               P   P
PG22  -9174.635974 -16560.563274  19111.500493    239.499880               P   P
PG23  16505.249730 -20722.126604    891.647208    -13.060284               P   P
PG24  17383.006622   4155.707842  19469.219939    259.717595               P   P
PG25  19585.697963 -16842.188204   5225.690549    308.707245               P   P
PG26  -1903.620564 -19162.810056 -18248.856207    196.771695               P   P
PG27 -20225.776839 -12639.953230 -12305.023195    176.826591               P   P
PG28  -3512.895946  20017.242186  17735.362650    373.361746               P   P
PG29  19992.978784  -5859.307622 -16560.945567   -500.290897               P   P
PG30  -2484.654358  23055.472104 -12649.203934   -522.607829               P   P
PG31  -6271.371369 -25445.184793   2152.614861   -172.350836               P   P
PG32  -1786.337499 -15736.832080  21484.311644   -100.302399               P   P
PR01  11029.161705 -12703.967997  19186.922037      7.598661               P   P
PR02  -9912.162637  -8241.997519  22069.873447    514.796558               P   P
PR03 -23059.185649    546.841052  11000.641837     54.521091               P   P
PR04 -23180.493449   8768.744466  -6020.692930    135.565364               P   P
PR05 -10616.272211  12170.823057 -19734.926722     90.735119               P   P
PR07  23306.835423   -966.865782 -10223.826605     33.534132               P   P
PR08  23035.871768  -8981.118849   6286.166585    -64.441003               P   P
PR09   3532.849069  19084.683358  16523.699841     48.458651               P   P
PR12   6572.956605 -24634.889425   -234.270995     17.811616               P   P
PR13  -2601.425745 -19929.440196 -15725.417485    -20.483509               P   P
PR14 -10819.302045  -2552.427285 -22951.436034     76.224096               P   P
PR15 -12265.006729  15440.376490 -16166.638972     96.960004               P   P
PR17 -19154.246706 -12117.912198  11678.111565    515.477831               P   P
PR18 -12483.968563   1362.880403  22225.836746    112.746928               P   P
PR19   -542.620391  13618.037164  21558.829129   -184.419578               P   P
PR20  14289.861431  20079.984813   6485.707856    -68.174788               P   P
PR21  18889.945289  11247.096033 -12954.306717   -291.384496               P   P
PR22  11777.928346  -2147.723894 -22522.637989   -175.409687               P   P
PR24 -15073.821933 -19763.279218  -5705.611192     87.947684               P   P
PE01 -17773.454874  -2412.158714 -23552.897261   -611.655447               P   P
PE02  17835.829540   2261.973205  23503.846895    291.244093               P   P
PE03  28598.034042   5739.486570  -5074.076608   -545.427062               P   P
PE04 -25664.061157   7181.108983 -12871.433532  -1001.255648               P   P
PE05  14760.357618  15549.827858 -20401.459322   -193.137482               P   P
PE07   7464.679058 -16178.318869  23648.889037   -656.135568               P   P
PE08  25435.616114  -7414.759271  13217.412949   -508.165890               P   P
PE09  -7161.085061  16099.536163 -23774.032406   -475.820001               P   P
PE10  -7947.855112  17129.581485  22786.190252   -505.185606               P   P
PE11   -186.972647  24404.838246  16724.651636   4026.135189               P   P
PE12 -14265.336682   7532.004891  24816.602805   4675.106841               P   P
PE13    596.548467 -24045.630855 -17257.461607    427.870823               P   P
PE14  26148.914524  11101.663820   4815.577846  -1805.400136               P   P
PE15  14237.651504  -7409.164285 -24865.106942    753.152441               P   P
PE18 -16106.589201 -17606.586354 -15107.503473  -1593.470591               P   P
PE19 -27723.056996  -7298.716393   7388.488160  -2604.553800               P   P
PE21  -4854.140160 -19295.657722 -21919.534117   -727.025927               P   P
PE24 -12636.436057  25997.566931   6418.833149   -547.568335               P   P
PE25   4618.552863  19490.633288  21795.937501   -569.523002               P   P
PE26 -13763.274491 -26172.597803   1403.759372  -1001.837728               P   P
PE27  11625.923958 -26131.559466  -7604.429791   -270.664148               P   P
PE30  21379.522084 -16626.182733  11910.874142   -410.927459               P   P
PE31 -21126.920680  17540.146427 -11060.391182   -494.687247               P   P
PE33 -19428.086841 -13536.477695  17776.385296   -457.820553               P   P
PE34  19454.994249  13292.027028 -17921.156420   -510.776948               P   P
PE36  13287.358247  26437.617565   -421.561043   -356.195136               P   P
EOF
